STARLINK-35988          
1 66615U 25270AD  25352.25003472  .00026981  00000+0  65072-3 0  9998
2 66615  42.9989 160.7205 0001578 245.2808 250.5107 15.40706812  5120
STARLINK-35391          
1 66616U 25270AE  25352.25003472  .00025882  00000+0  62546-3 0  9991
2 66616  42.9998 160.4781 0001658 275.5704 319.8374 15.40665319  5397
STARLINK-35940          
1 66617U 25271A   25352.25003472  .00044967  00000+0  11281-2 0  9997
2 66617  53.1584 161.1186 0001452 132.6488 350.4334 15.39604775  5129
STARLINK-35970          
1 66618U 25271B   25352.26206367  .00032729  00000+0  59326-3 0  9993
2 66618  53.1593 160.7171 0000687  60.1734 299.9343 15.49347181  5063
STARLINK-35951          
1 66619U 25271C   25352.20572510  .00113404  00000+0  20150-2 0  9996
2 66619  53.1590 161.0817 0000491  65.7997 294.3063 15.49345027  5051
STARLINK-35936          
1 66620U 25271D   25352.27126318  .00039571  00000+0  71543-3 0  9991
2 66620  53.1601 160.7823 0000850  76.6318 283.4786 15.49329114  5067
STARLINK-35847          
1 66621U 25271E   25352.26141566  .00048290  00000+0  86958-3 0  9997
2 66621  53.1596 160.7113 0000945  77.4059 282.7056 15.49353563  5066
STARLINK-35950          
1 66622U 25271F   25352.25003472 -.02397099  00000+0 -63008-1 0  9997
2 66622  53.1602 160.9153 0001577  89.8358 134.9054 15.41653631  5126
STARLINK-35920          
1 66623U 25271G   25352.25003472  .00041872  00000+0  10519-2 0  9999
2 66623  53.1598 161.0128 0000887  96.4168  78.2111 15.39594449  5123
STARLINK-35927          
1 66624U 25271H   25352.26954633  .00097357  00000+0  17346-2 0  9999
2 66624  53.1597 160.7697 0000836  82.8283 277.2821 15.49344315  5069
STARLINK-35929          
1 66625U 25271J   25352.26915663 -.00122881  00000+0 -23363-2 0  9999
2 66625  53.1597 160.7656 0003353  64.9356 295.2000 15.48054242  5069
STARLINK-35902          
1 66626U 25271K   25352.25003472  .00040740  00000+0  10244-2 0  9990
2 66626  53.1602 160.9619 0001410  83.3718 117.0381 15.39579811  5121
