CCSDS_OMM_VERS = 2.0
CREATION_DATE  = 
ORIGINATOR     = 

OBJECT_NAME    = STARLINK-35988
OBJECT_ID      = 2025-270AD
CENTER_NAME    = EARTH
REF_FRAME      = TEME
TIME_SYSTEM    = UTC
MEAN_ELEMENT_THEORY = SGP/SGP4

EPOCH          = 2025-12-18T06:00:02.999808
MEAN_MOTION    = 15.40706812
ECCENTRICITY   = .00015787
INCLINATION    = 42.9989
RA_OF_ASC_NODE = 160.7205
ARG_OF_PERICENTER = 245.2808
MEAN_ANOMALY   = 250.5107

EPHEMERIS_TYPE = 0
CLASSIFICATION_TYPE = U
NORAD_CAT_ID   = 66615
ELEMENT_SET_NO = 999
REV_AT_EPOCH   = 512
BSTAR          = .65072476E-3
MEAN_MOTION_DOT = .26981E-3
MEAN_MOTION_DDOT = 0

CCSDS_OMM_VERS = 2.0
CREATION_DATE  = 
ORIGINATOR     = 

OBJECT_NAME    = STARLINK-35391
OBJECT_ID      = 2025-270AE
CENTER_NAME    = EARTH
REF_FRAME      = TEME
TIME_SYSTEM    = UTC
MEAN_ELEMENT_THEORY = SGP/SGP4

EPOCH          = 2025-12-18T06:00:02.999808
MEAN_MOTION    = 15.40665319
ECCENTRICITY   = .0001658
INCLINATION    = 42.9998
RA_OF_ASC_NODE = 160.4781
ARG_OF_PERICENTER = 275.5704
MEAN_ANOMALY   = 319.8374

EPHEMERIS_TYPE = 0
CLASSIFICATION_TYPE = U
NORAD_CAT_ID   = 66616
ELEMENT_SET_NO = 999
REV_AT_EPOCH   = 539
BSTAR          = .62545807E-3
MEAN_MOTION_DOT = .25882E-3
MEAN_MOTION_DDOT = 0

CCSDS_OMM_VERS = 2.0
CREATION_DATE  = 
ORIGINATOR     = 

OBJECT_NAME    = STARLINK-35940
OBJECT_ID      = 2025-271A
CENTER_NAME    = EARTH
REF_FRAME      = TEME
TIME_SYSTEM    = UTC
MEAN_ELEMENT_THEORY = SGP/SGP4

EPOCH          = 2025-12-18T06:00:02.999808
MEAN_MOTION    = 15.39604775
ECCENTRICITY   = .00014524
INCLINATION    = 53.1584
RA_OF_ASC_NODE = 161.1186
ARG_OF_PERICENTER = 132.6488
MEAN_ANOMALY   = 350.4334

EPHEMERIS_TYPE = 0
CLASSIFICATION_TYPE = U
NORAD_CAT_ID   = 66617
ELEMENT_SET_NO = 999
REV_AT_EPOCH   = 512
BSTAR          = .11280982E-2
MEAN_MOTION_DOT = .44967E-3
MEAN_MOTION_DDOT = 0

CCSDS_OMM_VERS = 2.0
CREATION_DATE  = 
ORIGINATOR     = 

OBJECT_NAME    = STARLINK-35970
OBJECT_ID      = 2025-271B
CENTER_NAME    = EARTH
REF_FRAME      = TEME
TIME_SYSTEM    = UTC
MEAN_ELEMENT_THEORY = SGP/SGP4

EPOCH          = 2025-12-18T06:17:22.301088
MEAN_MOTION    = 15.49347181
ECCENTRICITY   = .00006877
INCLINATION    = 53.1593
RA_OF_ASC_NODE = 160.7171
ARG_OF_PERICENTER = 60.1734
MEAN_ANOMALY   = 299.9343

EPHEMERIS_TYPE = 0
CLASSIFICATION_TYPE = U
NORAD_CAT_ID   = 66618
ELEMENT_SET_NO = 999
REV_AT_EPOCH   = 506
BSTAR          = .59325698E-3
MEAN_MOTION_DOT = .32729E-3
MEAN_MOTION_DDOT = 0

CCSDS_OMM_VERS = 2.0
CREATION_DATE  = 
ORIGINATOR     = 

OBJECT_NAME    = STARLINK-35951
OBJECT_ID      = 2025-271C
CENTER_NAME    = EARTH
REF_FRAME      = TEME
TIME_SYSTEM    = UTC
MEAN_ELEMENT_THEORY = SGP/SGP4

EPOCH          = 2025-12-18T04:56:14.648640
MEAN_MOTION    = 15.49345027
ECCENTRICITY   = .00004912
INCLINATION    = 53.1590
RA_OF_ASC_NODE = 161.0817
ARG_OF_PERICENTER = 65.7997
MEAN_ANOMALY   = 294.3063

EPHEMERIS_TYPE = 0
CLASSIFICATION_TYPE = U
NORAD_CAT_ID   = 66619
ELEMENT_SET_NO = 999
REV_AT_EPOCH   = 505
BSTAR          = .20150292E-2
MEAN_MOTION_DOT = .113404E-2
MEAN_MOTION_DDOT = 0

CCSDS_OMM_VERS = 2.0
CREATION_DATE  = 
ORIGINATOR     = 

OBJECT_NAME    = STARLINK-35936
OBJECT_ID      = 2025-271D
CENTER_NAME    = EARTH
REF_FRAME      = TEME
TIME_SYSTEM    = UTC
MEAN_ELEMENT_THEORY = SGP/SGP4

EPOCH          = 2025-12-18T06:30:37.138752
MEAN_MOTION    = 15.49329114
ECCENTRICITY   = .00008502
INCLINATION    = 53.1601
RA_OF_ASC_NODE = 160.7823
ARG_OF_PERICENTER = 76.6318
MEAN_ANOMALY   = 283.4786

EPHEMERIS_TYPE = 0
CLASSIFICATION_TYPE = U
NORAD_CAT_ID   = 66620
ELEMENT_SET_NO = 999
REV_AT_EPOCH   = 506
BSTAR          = .71542612E-3
MEAN_MOTION_DOT = .39571E-3
MEAN_MOTION_DDOT = 0

CCSDS_OMM_VERS = 2.0
CREATION_DATE  = 
ORIGINATOR     = 

OBJECT_NAME    = STARLINK-35847
OBJECT_ID      = 2025-271E
CENTER_NAME    = EARTH
REF_FRAME      = TEME
TIME_SYSTEM    = UTC
MEAN_ELEMENT_THEORY = SGP/SGP4

EPOCH          = 2025-12-18T06:16:26.313024
MEAN_MOTION    = 15.49353563
ECCENTRICITY   = .00009456
INCLINATION    = 53.1596
RA_OF_ASC_NODE = 160.7113
ARG_OF_PERICENTER = 77.4059
MEAN_ANOMALY   = 282.7056

EPHEMERIS_TYPE = 0
CLASSIFICATION_TYPE = U
NORAD_CAT_ID   = 66621
ELEMENT_SET_NO = 999
REV_AT_EPOCH   = 506
BSTAR          = .86958215E-3
MEAN_MOTION_DOT = .4829E-3
MEAN_MOTION_DDOT = 0

CCSDS_OMM_VERS = 2.0
CREATION_DATE  = 
ORIGINATOR     = 

OBJECT_NAME    = STARLINK-35950
OBJECT_ID      = 2025-271F
CENTER_NAME    = EARTH
REF_FRAME      = TEME
TIME_SYSTEM    = UTC
MEAN_ELEMENT_THEORY = SGP/SGP4

EPOCH          = 2025-12-18T06:00:02.999808
MEAN_MOTION    = 15.41653631
ECCENTRICITY   = .00015776
INCLINATION    = 53.1602
RA_OF_ASC_NODE = 160.9153
ARG_OF_PERICENTER = 89.8358
MEAN_ANOMALY   = 134.9054

EPHEMERIS_TYPE = 0
CLASSIFICATION_TYPE = U
NORAD_CAT_ID   = 66622
ELEMENT_SET_NO = 999
REV_AT_EPOCH   = 512
BSTAR          = -.63008004E-1
MEAN_MOTION_DOT = -.2397099E-1
MEAN_MOTION_DDOT = 0

CCSDS_OMM_VERS = 2.0
CREATION_DATE  = 
ORIGINATOR     = 

OBJECT_NAME    = STARLINK-35920
OBJECT_ID      = 2025-271G
CENTER_NAME    = EARTH
REF_FRAME      = TEME
TIME_SYSTEM    = UTC
MEAN_ELEMENT_THEORY = SGP/SGP4

EPOCH          = 2025-12-18T06:00:02.999808
MEAN_MOTION    = 15.39594449
ECCENTRICITY   = .00008877
INCLINATION    = 53.1598
RA_OF_ASC_NODE = 161.0128
ARG_OF_PERICENTER = 96.4168
MEAN_ANOMALY   = 78.2111

EPHEMERIS_TYPE = 0
CLASSIFICATION_TYPE = U
NORAD_CAT_ID   = 66623
ELEMENT_SET_NO = 999
REV_AT_EPOCH   = 512
BSTAR          = .10519091E-2
MEAN_MOTION_DOT = .41872E-3
MEAN_MOTION_DDOT = 0

CCSDS_OMM_VERS = 2.0
CREATION_DATE  = 
ORIGINATOR     = 

OBJECT_NAME    = STARLINK-35927
OBJECT_ID      = 2025-271H
CENTER_NAME    = EARTH
REF_FRAME      = TEME
TIME_SYSTEM    = UTC
MEAN_ELEMENT_THEORY = SGP/SGP4

EPOCH          = 2025-12-18T06:28:08.802912
MEAN_MOTION    = 15.49344315
ECCENTRICITY   = .0000836
INCLINATION    = 53.1597
RA_OF_ASC_NODE = 160.7697
ARG_OF_PERICENTER = 82.8283
MEAN_ANOMALY   = 277.2821

EPHEMERIS_TYPE = 0
CLASSIFICATION_TYPE = U
NORAD_CAT_ID   = 66624
ELEMENT_SET_NO = 999
REV_AT_EPOCH   = 506
BSTAR          = .17346453E-2
MEAN_MOTION_DOT = .97357E-3
MEAN_MOTION_DDOT = 0

CCSDS_OMM_VERS = 2.0
CREATION_DATE  = 
ORIGINATOR     = 

OBJECT_NAME    = STARLINK-35929
OBJECT_ID      = 2025-271J
CENTER_NAME    = EARTH
REF_FRAME      = TEME
TIME_SYSTEM    = UTC
MEAN_ELEMENT_THEORY = SGP/SGP4

EPOCH          = 2025-12-18T06:27:35.132832
MEAN_MOTION    = 15.48054242
ECCENTRICITY   = .00033539
INCLINATION    = 53.1597
RA_OF_ASC_NODE = 160.7656
ARG_OF_PERICENTER = 64.9356
MEAN_ANOMALY   = 295.2000

EPHEMERIS_TYPE = 0
CLASSIFICATION_TYPE = U
NORAD_CAT_ID   = 66625
ELEMENT_SET_NO = 999
REV_AT_EPOCH   = 506
BSTAR          = -.23362783E-2
MEAN_MOTION_DOT = -.122881E-2
MEAN_MOTION_DDOT = 0

CCSDS_OMM_VERS = 2.0
CREATION_DATE  = 
ORIGINATOR     = 

OBJECT_NAME    = STARLINK-35902
OBJECT_ID      = 2025-271K
CENTER_NAME    = EARTH
REF_FRAME      = TEME
TIME_SYSTEM    = UTC
MEAN_ELEMENT_THEORY = SGP/SGP4

EPOCH          = 2025-12-18T06:00:02.999808
MEAN_MOTION    = 15.39579811
ECCENTRICITY   = .00014104
INCLINATION    = 53.1602
RA_OF_ASC_NODE = 160.9619
ARG_OF_PERICENTER = 83.3718
MEAN_ANOMALY   = 117.0381

EPHEMERIS_TYPE = 0
CLASSIFICATION_TYPE = U
NORAD_CAT_ID   = 66626
ELEMENT_SET_NO = 999
REV_AT_EPOCH   = 512
BSTAR          = .10243982E-2
MEAN_MOTION_DOT = .4074E-3
MEAN_MOTION_DDOT = 0

